GLOBALSTAR M024         
1 25883U 99043A   25141.57204090 -.00000010  00000+0  19575-2 0  9991
2 25883  52.0020  80.6719 0001848  48.3283 122.5751 11.10167743111903
GLOBALSTAR M027         
1 25884U 99043B   25141.43277142 -.00000093  00000+0 -11267-2 0  9997
2 25884  52.0168 158.2142 0021579 307.7334  52.1504 11.04372240138288
GLOBALSTAR M054         
1 25885U 99043C   25142.41055771  .00000046  00000+0  29991-2 0  9998
2 25885  52.0148 287.6627 0006589 128.7946 261.0520 11.39216298116447
GLOBALSTAR M053         
1 25886U 99043D   25141.55702985 -.00000071  00000+0 -72764-4 0  9997
2 25886  51.9977 235.3234 0002883  44.6151 328.8078 11.27665271116443
GLOBALSTAR M058         
1 25907U 99049A   25141.83747549 -.00000051  00000+0  44439-3 0  9997
2 25907  51.9908 179.5364 0002126 213.6554 146.4146 11.93199715149601
GLOBALSTAR M050         
1 25908U 99049B   25141.91577731 -.00000139  00000+0 -57535-3 0  9990
2 25908  51.9967 188.9664 0008902 338.1385 194.6508 12.07454570149748
GLOBALSTAR M033         
1 25909U 99049C   25141.72949633 -.00000036  00000+0  53244-3 0  9992
2 25909  51.9922  63.1328 0013087 207.1447 152.8717 12.20292554165232
GLOBALSTAR M055         
1 25910U 99049D   25142.15944778 -.00000075  00000+0  16260-3 0  9997
2 25910  52.0025  73.9386 0007446  75.4219 284.7458 12.29427609165303
